FIREFLY-1               
1 62701U 25009CW  26194.23622368  .00000847  00000+0  87381-4 0  9995
2 62701  97.7062 271.8260 0002479 232.5248 127.5746 14.92738572 81204
FIREFLY-2               
1 62704U 25009CZ  26194.28115486  .00000627  00000+0  66069-4 0  9997
2 62704  97.7019 271.6408 0006562   9.4628 350.6714 14.92732755 81213
FIREFLY-3               
1 62710U 25009DF  26194.25935135  .00000411  00000+0  45122-4 0  9990
2 62710  97.7053 271.8785 0004803  77.6618 282.5139 14.92798068 81224
