{"fetched_at":"2026-07-13T18:16:51.309Z","source":"https://celestrak.org/NORAD/elements/gp.php?NAME=FIREFLY&FORMAT=JSON","constellation":"pixxel","records":[{"OBJECT_NAME":"FIREFLY-1","OBJECT_ID":"2025-009CW","EPOCH":"2026-07-13T05:40:09.725952","CLASSIFICATION_TYPE":"U","MEAN_MOTION":14.92738572,"ECCENTRICITY":0.00024791,"INCLINATION":97.7062,"RA_OF_ASC_NODE":271.826,"ARG_OF_PERICENTER":232.5248,"MEAN_ANOMALY":127.5746,"EPHEMERIS_TYPE":0,"NORAD_CAT_ID":62701,"ELEMENT_SET_NO":999,"REV_AT_EPOCH":8120,"BSTAR":0.000087380601,"MEAN_MOTION_DOT":0.00000847,"MEAN_MOTION_DDOT":0},{"OBJECT_NAME":"FIREFLY-2","OBJECT_ID":"2025-009CZ","EPOCH":"2026-07-13T06:44:51.779904","CLASSIFICATION_TYPE":"U","MEAN_MOTION":14.92732755,"ECCENTRICITY":0.00065627,"INCLINATION":97.7019,"RA_OF_ASC_NODE":271.6408,"ARG_OF_PERICENTER":9.4628,"MEAN_ANOMALY":350.6714,"EPHEMERIS_TYPE":0,"NORAD_CAT_ID":62704,"ELEMENT_SET_NO":999,"REV_AT_EPOCH":8121,"BSTAR":0.000066069176,"MEAN_MOTION_DOT":0.00000627,"MEAN_MOTION_DDOT":0},{"OBJECT_NAME":"FIREFLY-3","OBJECT_ID":"2025-009DF","EPOCH":"2026-07-13T06:13:27.956640","CLASSIFICATION_TYPE":"U","MEAN_MOTION":14.92798068,"ECCENTRICITY":0.00048031,"INCLINATION":97.7053,"RA_OF_ASC_NODE":271.8785,"ARG_OF_PERICENTER":77.6618,"MEAN_ANOMALY":282.5139,"EPHEMERIS_TYPE":0,"NORAD_CAT_ID":62710,"ELEMENT_SET_NO":999,"REV_AT_EPOCH":8122,"BSTAR":0.000045122236,"MEAN_MOTION_DOT":0.00000411,"MEAN_MOTION_DDOT":0}]}
